IXPE                    
1 49954U 21121A   24050.58334491  .00005652  00000+0  41398-3 0  9991
2 49954   0.2277 192.4506 0009588 322.8752 138.4008 14.96577229  5299
